{
  "norad_id": 65464,
  "name": "STARLINK-35107",
  "history": [
    {
      "epoch": "2026-03-28T22:11:49.065216Z",
      "apogee_km": 476.49909906846733,
      "perigee_km": 473.93416293852715,
      "latitude_deg": 4.558481120772885e-05,
      "longitude_deg": 9.194362768263732,
      "height_km": 475.87846284126897,
      "semi_major_axis_km": 6853.353631003497,
      "eccentricity": 0.00018713,
      "inclination_deg": 53.1586,
      "raan_deg": 168.4871,
      "arg_perigee_deg": 79.4284,
      "mean_anomaly_deg": 280.6928,
      "mean_motion_rev_day": 15.30199477
    },
    {
      "epoch": "2026-03-29T04:28:01.646688Z",
      "apogee_km": 476.4450262954824,
      "perigee_km": 473.90792964593766,
      "latitude_deg": 3.233859895684643e-05,
      "longitude_deg": -86.32967621938378,
      "height_km": 475.8555267710085,
      "semi_major_axis_km": 6853.31347797071,
      "eccentricity": 0.0001851,
      "inclination_deg": 53.1585,
      "raan_deg": 167.273,
      "arg_perigee_deg": 80.1005,
      "mean_anomaly_deg": 280.0205,
      "mean_motion_rev_day": 15.30212925
    },
    {
      "epoch": "2026-03-29T21:42:36.685728Z",
      "apogee_km": 476.0629501877502,
      "perigee_km": 474.32220447510736,
      "latitude_deg": -4.222348266124905e-05,
      "longitude_deg": 10.978925015751992,
      "height_km": 475.92489177006007,
      "semi_major_axis_km": 6853.3295773314285,
      "eccentricity": 0.000127,
      "inclination_deg": 53.1577,
      "raan_deg": 163.9358,
      "arg_perigee_deg": 79.0347,
      "mean_anomaly_deg": 281.0796,
      "mean_motion_rev_day": 15.30207533
    },
    {
      "epoch": "2026-03-30T05:32:52.699200Z",
      "apogee_km": 476.23098242086326,
      "perigee_km": 474.1464748672388,
      "latitude_deg": 1.8135587671033627e-05,
      "longitude_deg": -108.42643874446529,
      "height_km": 475.8605251643182,
      "semi_major_axis_km": 6853.32572864405,
      "eccentricity": 0.00015208,
      "inclination_deg": 53.1584,
      "raan_deg": 162.419,
      "arg_perigee_deg": 77.4871,
      "mean_anomaly_deg": 282.63,
      "mean_motion_rev_day": 15.30208822
    },
    {
      "epoch": "2026-03-30T11:49:05.681568Z",
      "apogee_km": 476.05789448437463,
      "perigee_km": 474.3418189354543,
      "latitude_deg": 2.6811580713421887e-05,
      "longitude_deg": 156.04906386476452,
      "height_km": 476.02715254057983,
      "semi_major_axis_km": 6853.336856709914,
      "eccentricity": 0.0001252,
      "inclination_deg": 53.1586,
      "raan_deg": 161.2061,
      "arg_perigee_deg": 85.2764,
      "mean_anomaly_deg": 274.838,
      "mean_motion_rev_day": 15.30205095
    },
    {
      "epoch": "2026-03-30T21:13:24.974976Z",
      "apogee_km": 475.9701550680611,
      "perigee_km": 474.4278803306379,
      "latitude_deg": -4.541184745276684e-05,
      "longitude_deg": 12.761856924650965,
      "height_km": 476.0722359511929,
      "semi_major_axis_km": 6853.336017699349,
      "eccentricity": 0.00011252,
      "inclination_deg": 53.1582,
      "raan_deg": 159.3856,
      "arg_perigee_deg": 88.1518,
      "mean_anomaly_deg": 271.9611,
      "mean_motion_rev_day": 15.30205376
    },
    {
      "epoch": "2026-03-31T11:19:53.930208Z",
      "apogee_km": 475.9409705534663,
      "perigee_km": 474.5474040228428,
      "latitude_deg": 3.053969405869057e-05,
      "longitude_deg": 157.83107076951268,
      "height_km": 475.97227435546887,
      "semi_major_axis_km": 6853.381187288154,
      "eccentricity": 0.00010167,
      "inclination_deg": 53.1576,
      "raan_deg": 156.6548,
      "arg_perigee_deg": 75.8693,
      "mean_anomaly_deg": 284.2421,
      "mean_motion_rev_day": 15.30190248
    },
    {
      "epoch": "2026-04-01T09:16:38.728704Z",
      "apogee_km": 475.9299903556912,
      "perigee_km": 474.51134531844764,
      "latitude_deg": 8.636851577277947e-06,
      "longitude_deg": -176.5041857832868,
      "height_km": 475.97805630182836,
      "semi_major_axis_km": 6853.357667837069,
      "eccentricity": 0.0001035,
      "inclination_deg": 53.1574,
      "raan_deg": 152.4075,
      "arg_perigee_deg": 78.5546,
      "mean_anomaly_deg": 281.5571,
      "mean_motion_rev_day": 15.30198125
    },
    {
      "epoch": "2026-04-02T10:21:29.551392Z",
      "apogee_km": 476.10539719962344,
      "perigee_km": 474.37670112050273,
      "latitude_deg": -5.0258423346159424e-05,
      "longitude_deg": 161.40057899033852,
      "height_km": 475.9773481570179,
      "semi_major_axis_km": 6853.378049160063,
      "eccentricity": 0.00012612,
      "inclination_deg": 53.1582,
      "raan_deg": 147.5541,
      "arg_perigee_deg": 79.2223,
      "mean_anomaly_deg": 280.8919,
      "mean_motion_rev_day": 15.30191299
    },
    {
      "epoch": "2026-04-03T13:00:24.173280Z",
      "apogee_km": 476.2572800744474,
      "perigee_km": 474.3792962563839,
      "latitude_deg": 4.335139546577749e-06,
      "longitude_deg": 115.4214135672383,
      "height_km": 475.8762201220388,
      "semi_major_axis_km": 6853.455288165415,
      "eccentricity": 0.00013701,
      "inclination_deg": 53.1584,
      "raan_deg": 142.3969,
      "arg_perigee_deg": 68.7744,
      "mean_anomaly_deg": 291.3403,
      "mean_motion_rev_day": 15.30165431
    },
    {
      "epoch": "2026-04-04T20:21:28.710144Z",
      "apogee_km": 476.23718050600746,
      "perigee_km": 474.2003631706175,
      "latitude_deg": -3.9428242782281444e-05,
      "longitude_deg": -2.2058739881034133,
      "height_km": 476.25232432345086,
      "semi_major_axis_km": 6853.355771838313,
      "eccentricity": 0.0001486,
      "inclination_deg": 53.1581,
      "raan_deg": 136.3261,
      "arg_perigee_deg": 97.672,
      "mean_anomaly_deg": 262.4449,
      "mean_motion_rev_day": 15.3019876
    },
    {
      "epoch": "2026-04-05T12:02:00.623904Z",
      "apogee_km": 476.0517487089819,
      "perigee_km": 474.3519836033993,
      "latitude_deg": 1.6243744287201085e-05,
      "longitude_deg": 118.98722124291758,
      "height_km": 475.74594769999567,
      "semi_major_axis_km": 6853.33886615619,
      "eccentricity": 0.00012401,
      "inclination_deg": 53.1584,
      "raan_deg": 133.2959,
      "arg_perigee_deg": 65.3828,
      "mean_anomaly_deg": 294.7302,
      "mean_motion_rev_day": 15.30204422
    },
    {
      "epoch": "2026-04-05T19:52:16.485312Z",
      "apogee_km": 476.1491155277181,
      "perigee_km": 474.24800024396063,
      "latitude_deg": -9.846712989618448e-08,
      "longitude_deg": -0.421765232898591,
      "height_km": 476.1832618160511,
      "semi_major_axis_km": 6853.335557885839,
      "eccentricity": 0.0001387,
      "inclination_deg": 53.1587,
      "raan_deg": 131.7749,
      "arg_perigee_deg": 95.2466,
      "mean_anomaly_deg": 264.8693,
      "mean_motion_rev_day": 15.3020553
    },
    {
      "epoch": "2026-04-06T02:08:29.038272Z",
      "apogee_km": 476.1322894456125,
      "perigee_km": 474.1993839135548,
      "latitude_deg": -6.345858622716545e-06,
      "longitude_deg": -95.94438047557979,
      "height_km": 476.11557726485313,
      "semi_major_axis_km": 6853.302836679583,
      "eccentricity": 0.00014102,
      "inclination_deg": 53.1581,
      "raan_deg": 130.5621,
      "arg_perigee_deg": 93.0875,
      "mean_anomaly_deg": 267.0287,
      "mean_motion_rev_day": 15.30216489
    }
  ]
}